NORAD_CAT_ID,OBJECT_NAME,OBJECT_TYPE,EPOCH,MEAN_MOTION,ECCENTRICITY,INCLINATION,RA_OF_ASC_NODE,ARG_OF_PERICENTER,MEAN_ANOMALY,BSTAR,MEAN_MOTION_DOT,MEAN_MOTION_DDOT,TLE_LINE0,TLE_LINE1,TLE_LINE2,SEMIMAJOR_AXIS,PERIOD,APOGEE,PERIGEE,DECAYED
52656.0,STARLINK-4004,PAYLOAD,2022-07-23 22:00:00,15.08849136,0.0001409,53.214,341.2591,65.7469,80.5011,0.00058681,9.066e-05,0.0,0 STARLINK-4004,1 52656U 22053A   22204.91667824  .00009066  00000-0  58681-3 0  9991,2 52656  53.2140 341.2591 0001409  65.7469  80.5011 15.08849136  1301,6917.852,95.437,540.692,538.743,0.0
52656.0,STARLINK-4004,PAYLOAD,2022-07-24 14:00:01,15.08844223,0.0001457,53.2141,338.2658,72.9324,96.511,-0.0015646,-0.00025105,0.0,0 STARLINK-4004,1 52656U 22053A   22205.58334491 -.00025105  00000-0 -15646-2 0  9993,2 52656  53.2141 338.2658 0001457  72.9324  96.5110 15.08844223  1304,6917.8669999999975,95.437,540.74,538.725,0.0
52656.0,STARLINK-4004,PAYLOAD,2022-07-24 22:00:00,15.08835633,0.0001395999999999,53.2138,336.7695,66.4075,114.6255,-0.0018733,-0.00029974,0.0,0 STARLINK-4004,1 52656U 22053A   22205.91667824 -.00029974  00000-0 -18733-2 0  9997,2 52656  53.2138 336.7695 0001396  66.4075 114.6255 15.08835633  1304,6917.894,95.438,540.724,538.793,0.0
52656.0,STARLINK-4004,PAYLOAD,2022-07-25 14:00:01,15.08826889,0.0001376999999999,53.214,333.7765,69.8351,134.3388,-0.0010446,-0.00016868,0.0,0 STARLINK-4004,1 52656U 22053A   22206.58334491 -.00016868  00000-0 -10446-2 0  9993,2 52656  53.2140 333.7765 0001377  69.8351 134.3388 15.08826889  1304,6917.92,95.438,540.738,538.8330000000002,0.0
52656.0,STARLINK-4004,PAYLOAD,2022-07-25 22:00:00,15.08832461,0.0001367,53.214,332.2801,64.6175,151.1267,-0.00031759,-5.338e-05,0.0,0 STARLINK-4004,1 52656U 22053A   22206.91667824 -.00005338  00000-0 -31759-3 0  9990,2 52656  53.2140 332.2801 0001367  64.6175 151.1267 15.08832461 11414,6917.903,95.438,540.714,538.823,0.0
52656.0,STARLINK-4004,PAYLOAD,2022-07-26 14:00:01,15.08841452,0.0001414,53.2143,329.2872,67.1965,171.71599999999995,-0.00083031,-0.00013478,0.0,0 STARLINK-4004,1 52656U 22053A   22207.58334491 -.00013478  00000-0 -83031-3 0  9999,2 52656  53.2143 329.2872 0001414  67.1965 171.7160 15.08841452  1306,6917.876,95.437,540.719,538.763,0.0
52656.0,STARLINK-4004,PAYLOAD,2022-07-26 20:00:01,15.088271,0.0001419,53.2144,328.1652,61.6467,95.9643,0.0024046,0.00038175,0.0,0 STARLINK-4004,1 52656U 22053A   22207.83334491  .00038175  00000-0  24046-2 0  9996,2 52656  53.2144 328.1652 0001419  61.6467  95.9643 15.08827100 11557,6917.92,95.438,540.766,538.803,0.0
52656.0,STARLINK-4004,PAYLOAD,2022-07-26 22:00:00,15.08854419,0.0001389,53.2144,327.7907,63.1762,187.3258,-0.00086636,-0.00014055,0.0,0 STARLINK-4004,1 52656U 22053A   22207.91667824 -.00014055  00000-0 -86636-3 0  9991,2 52656  53.2144 327.7907 0001389  63.1762 187.3258 15.08854419  1309,6917.8359999999975,95.437,540.6619999999998,538.74,0.0
52656.0,STARLINK-4004,PAYLOAD,2022-07-27 14:00:01,15.08857702,0.0001457,53.2148,324.7979,65.3445,208.3701,-0.00070261,-0.00011458,0.0,0 STARLINK-4004,1 52656U 22053A   22208.58334491 -.00011458  00000-0 -70261-3 0  9997,2 52656  53.2148 324.7979 0001457  65.3445 208.3701 15.08857702 11662,6917.826,95.436,540.6990000000002,538.683,0.0
52656.0,STARLINK-4004,PAYLOAD,2022-07-27 22:00:00,15.08882279,0.0001453,53.2149,323.3013,63.3025,222.0207,-0.0042051,-0.0006667,0.0,0 STARLINK-4004,1 52656U 22053A   22208.91667824 -.00066670  00000-0 -42051-2 0  9994,2 52656  53.2149 323.3013 0001453  63.3025 222.0207 15.08882279  1306,6917.751,95.435,540.621,538.611,0.0
52656.0,STARLINK-4004,PAYLOAD,2022-07-28 14:00:01,15.08845769,0.0001549,53.2152,320.3088,66.086,242.4489,-0.00066366,-0.00010836,0.0,0 STARLINK-4004,1 52656U 22053A   22209.58334491 -.00010836  00000-0 -66366-3 0  9998,2 52656  53.2152 320.3088 0001549  66.0860 242.4489 15.08845769  1303,6917.863,95.437,540.799,538.656,0.0
52656.0,STARLINK-4004,PAYLOAD,2022-07-28 22:00:00,15.08863115,0.0001485,53.2151,318.8121,64.4912,255.6363,-0.0019049,-0.00030496,0.0,0 STARLINK-4004,1 52656U 22053A   22209.91667824 -.00030496  00000-0 -19049-2 0  9993,2 52656  53.2151 318.8121 0001485  64.4912 255.6363 15.08863115 11865,6917.81,95.436,540.702,538.6469999999998,0.0
52656.0,STARLINK-4004,PAYLOAD,2022-07-29 14:00:01,15.08840101,0.0001421,53.2153,315.8198,64.3587,278.9999,-0.0013389,-0.00021533,0.0,0 STARLINK-4004,1 52656U 22053A   22210.58334491 -.00021533  00000-0 -13389-2 0  9992,2 52656  53.2153 315.8198 0001421  64.3587 278.9999 15.08840101 11970,6917.88,95.438,540.7280000000002,538.762,0.0
52656.0,STARLINK-4004,PAYLOAD,2022-07-29 22:00:00,15.08849612,0.0001325,53.2149,314.3229,63.0831,291.8557,-0.0021195999999999,-0.00033872,0.0,0 STARLINK-4004,1 52656U 22053A   22210.91667824 -.00033872  00000-0 -21196-2 0  9992,2 52656  53.2149 314.3229 0001325  63.0831 291.8557 15.08849612  1301,6917.851,95.437,540.633,538.799,0.0
52656.0,STARLINK-4004,PAYLOAD,2022-07-30 06:00:00,15.08824902,0.0001252,53.2151,312.8255,73.1399,293.395,0.0022362,0.00035466,0.0,0 STARLINK-4004,1 52656U 22053A   22211.25001157  .00035466  00000-0  22362-2 0  9996,2 52656  53.2151 312.8255 0001252  73.1399 293.3950 15.08824902 12071,6917.927,95.439,540.658,538.925,0.0
52656.0,STARLINK-4004,PAYLOAD,2022-07-30 14:00:01,15.08840416,0.000136,53.2148,311.3309,64.2512,313.8747,-0.00048987,-8.076e-05,0.0,0 STARLINK-4004,1 52656U 22053A   22211.58334491 -.00008076  00000-0 -48987-3 0  9993,2 52656  53.2148 311.3309 0001360  64.2512 313.8747 15.08840416  1303,6917.879,95.438,540.685,538.803,0.0
52656.0,STARLINK-4004,PAYLOAD,2022-07-30 20:00:01,15.08848696,0.0001302,53.2143,310.2085,61.6119,235.2055,-0.00066583,-0.00010871,0.0,0 STARLINK-4004,1 52656U 22053A   22211.83334491 -.00010871  00000-0 -66583-3 0  9999,2 52656  53.2143 310.2085 0001302  61.6119 235.2055 15.08848696 12159,6917.854,95.437,540.62,538.818,0.0
52656.0,STARLINK-4004,PAYLOAD,2022-07-30 22:00:00,15.08858665,0.0001286,53.2144,309.8338,64.2825,325.4326,-0.0021609,-0.00034531,0.0,0 STARLINK-4004,1 52656U 22053A   22211.91667824 -.00034531  00000-0 -21609-2 0  9995,2 52656  53.2144 309.8338 0001286  64.2825 325.4326 15.08858665  1304,6917.823,95.436,540.578,538.799,0.0
52656.0,STARLINK-4004,PAYLOAD,2022-07-31 14:00:01,15.08849923,0.0001361999999999,53.2141,306.8419,64.4381,348.4857,-0.00064546,-0.00010548,0.0,0 STARLINK-4004,1 52656U 22053A   22212.58334491 -.00010548  00000-0 -64546-3 0  9990,2 52656  53.2141 306.8419 0001362  64.4381 348.4857 15.08849923  1303,6917.85,95.437,540.6569999999998,538.773,0.0
52656.0,STARLINK-4004,PAYLOAD,2022-07-31 20:00:01,15.08866909,0.0001339,53.2136,305.7192,62.5851,269.0359,-0.0039659,-0.000629,0.0,0 STARLINK-4004,1 52656U 22053A   22212.83334491 -.00062900  00000-0 -39659-2 0  9993,2 52656  53.2136 305.7192 0001339  62.5851 269.0359 15.08866909 12319,6917.7980000000025,95.436,540.589,538.737,0.0
52656.0,STARLINK-4004,PAYLOAD,2022-07-31 22:00:00,15.08859806,0.0001345,53.2137,305.3446,66.2722,358.2524,-0.0040446999999999,-0.00064121,0.0,0 STARLINK-4004,1 52656U 22053A   22212.91667824 -.00064121  00000-0 -40447-2 0  9995,2 52656  53.2137 305.3446 0001345  66.2722 358.2524 15.08859806  1303,6917.82,95.436,540.615,538.754,0.0
52656.0,STARLINK-4004,PAYLOAD,2022-08-01 04:00:00,15.08804016,0.0001325,53.2135,304.2213,74.2727,268.9579,0.0029381,0.00046736,0.0,0 STARLINK-4004,1 52656U 22053A   22213.16667824  .00046736  00000-0  29381-2 0  9997,2 52656  53.2135 304.2213 0001325  74.2727 268.9579 15.08804016 12361,6917.99,95.44,540.7719999999998,538.939,0.0
52656.0,STARLINK-4004,PAYLOAD,2022-08-01 14:00:01,15.08825137,0.0001455,53.2135,302.3527,65.3838,22.3179,0.00028129,4.19e-05,0.0,0 STARLINK-4004,1 52656U 22053A   22213.58334491  .00004190  00000-0  28129-3 0  9992,2 52656  53.2135 302.3527 0001455  65.3838  22.3179 15.08825137  1303,6917.926,95.438,540.797,538.784,0.0
52656.0,STARLINK-4004,PAYLOAD,2022-08-01 22:00:00,15.08848002,0.0001376999999999,53.2132,300.8552,66.1679,33.1111,-0.0019061,-0.00030502,0.0,0 STARLINK-4004,1 52656U 22053A   22213.91667824 -.00030502  00000-0 -19061-2 0  9990,2 52656  53.2132 300.8552 0001377  66.1679  33.1111 15.08848002 12478,6917.856,95.437,540.674,538.768,0.0
52656.0,STARLINK-4004,PAYLOAD,2022-08-02 14:00:01,15.08830766,0.0001472,53.2132,297.8632,63.0959,59.3721,0.00078998,0.00012304,0.0,0 STARLINK-4004,1 52656U 22053A   22214.58334491  .00012304  00000-0  78998-3 0  9998,2 52656  53.2132 297.8632 0001472  63.0959  59.3721 15.08830766 12571,6917.909000000002,95.438,540.7919999999998,538.755,0.0
52656.0,STARLINK-4004,PAYLOAD,2022-08-03 12:00:00,15.08829888,0.0001415,53.2131,293.7473,60.3388,4.0022,-0.00091152,-0.00014761,0.0,0 STARLINK-4004,1 52656U 22053A   22215.50001157 -.00014761  00000-0 -91152-3 0  9999,2 52656  53.2131 293.7473 0001415  60.3388   4.0022 15.08829888 12711,6917.911,95.438,540.755,538.797,0.0
52656.0,STARLINK-4004,PAYLOAD,2022-08-03 14:00:01,15.08813128,0.0001426,53.2134,293.3735,58.2294,99.0107,0.0014038,0.00022108,0.0,0 STARLINK-4004,1 52656U 22053A   22215.58334491  .00022108  00000-0  14038-2 0  9996,2 52656  53.2134 293.3735 0001426  58.2294  99.0107 15.08813128  1306,6917.9630000000025,95.439,540.814,538.841,0.0
52656.0,STARLINK-4004,PAYLOAD,2022-08-03 22:00:01,15.08842406,0.000132,53.2134,291.8756,60.8402,108.0356,-0.0015068,-0.0002419,0.0,0 STARLINK-4004,1 52656U 22053A   22215.91668981 -.00024190  00000-0 -15068-2 0  9996,2 52656  53.2134 291.8756 0001320  60.8402 108.0356 15.08842406  1303,6917.873000000001,95.437,540.651,538.825,0.0
52656.0,STARLINK-4004,PAYLOAD,2022-08-04 06:00:00,15.08840239,0.0001338,53.2138,290.3787,66.4254,113.9704,7.276199999999999e-05,8.7e-06,0.0,0 STARLINK-4004,1 52656U 22053A   22216.25001157  .00000870  00000-0  72762-4 0  9993,2 52656  53.2138 290.3787 0001338  66.4254 113.9704 15.08840239 12824,6917.88,95.438,540.67,538.819,0.0
